{"type":"FeatureCollection","features":[{"type":"Feature","properties":{"name":"Butwal"},"geometry":{"type":"MultiPolygon","coordinates":[[[[83.204,27.565],[83.204,27.567],[83.202,27.568],[83.202,27.573],[83.208,27.578],[83.211,27.588],[83.215,27.589],[83.215,27.592],[83.22,27.603],[83.222,27.603],[83.226,27.607],[83.226,27.624],[83.224,27.626],[83.223,27.632],[83.217,27.639],[83.218,27.641],[83.217,27.649],[83.22,27.651],[83.219,27.659],[83.221,27.667],[83.223,27.669],[83.221,27.673],[83.223,27.676],[83.222,27.683],[83.224,27.688],[83.221,27.695],[83.222,27.696],[83.218,27.702],[83.217,27.708],[83.218,27.716],[83.211,27.725],[83.213,27.737],[83.207,27.751],[83.209,27.762],[83.218,27.766],[83.23,27.765],[83.239,27.754],[83.24,27.756],[83.244,27.756],[83.243,27.758],[83.244,27.761],[83.249,27.763],[83.254,27.771],[83.26,27.769],[83.264,27.76],[83.284,27.76],[83.293,27.763],[83.299,27.771],[83.305,27.771],[83.311,27.767],[83.316,27.768],[83.322,27.767],[83.326,27.771],[83.33,27.771],[83.338,27.767],[83.339,27.763],[83.346,27.76],[83.349,27.754],[83.352,27.756],[83.36,27.755],[83.365,27.745],[83.368,27.743],[83.37,27.739],[83.374,27.747],[83.38,27.747],[83.381,27.75],[83.384,27.752],[83.39,27.753],[83.397,27.749],[83.401,27.742],[83.406,27.738],[83.413,27.745],[83.416,27.746],[83.421,27.744],[83.428,27.745],[83.43,27.743],[83.435,27.742],[83.437,27.736],[83.441,27.735],[83.444,27.73],[83.448,27.731],[83.451,27.73],[83.456,27.732],[83.458,27.73],[83.463,27.73],[83.471,27.725],[83.478,27.727],[83.485,27.734],[83.492,27.732],[83.493,27.73],[83.496,27.733],[83.5,27.733],[83.504,27.729],[83.508,27.729],[83.511,27.733],[83.514,27.733],[83.517,27.732],[83.519,27.729],[83.53,27.73],[83.54,27.724],[83.545,27.723],[83.548,27.72],[83.557,27.721],[83.563,27.717],[83.569,27.716],[83.572,27.712],[83.579,27.709],[83.598,27.71],[83.604,27.708],[83.612,27.704],[83.615,27.699],[83.622,27.694],[83.628,27.698],[83.634,27.697],[83.638,27.69],[83.637,27.681],[83.638,27.676],[83.635,27.674],[83.633,27.67],[83.634,27.667],[83.633,27.661],[83.622,27.657],[83.614,27.65],[83.613,27.647],[83.604,27.644],[83.603,27.641],[83.605,27.635],[83.602,27.632],[83.602,27.628],[83.597,27.625],[83.595,27.626],[83.595,27.624],[83.586,27.615],[83.58,27.612],[83.576,27.612],[83.579,27.6],[83.584,27.596],[83.584,27.593],[83.587,27.589],[83.586,27.585],[83.587,27.581],[83.585,27.578],[83.587,27.578],[83.588,27.58],[83.594,27.58],[83.598,27.578],[83.6,27.574],[83.6,27.564],[83.596,27.554],[83.6,27.551],[83.6,27.544],[83.597,27.541],[83.595,27.541],[83.594,27.538],[83.596,27.535],[83.595,27.532],[83.597,27.531],[83.598,27.528],[83.597,27.524],[83.602,27.522],[83.603,27.51],[83.602,27.508],[83.599,27.507],[83.601,27.502],[83.607,27.499],[83.609,27.495],[83.615,27.491],[83.614,27.487],[83.616,27.485],[83.615,27.482],[83.617,27.48],[83.616,27.476],[83.618,27.475],[83.619,27.47],[83.618,27.466],[83.612,27.465],[83.396,27.475],[83.399,27.471],[83.405,27.47],[83.406,27.463],[83.404,27.461],[83.406,27.456],[83.403,27.451],[83.403,27.448],[83.398,27.443],[83.396,27.442],[83.393,27.443],[83.392,27.441],[83.39,27.441],[83.39,27.436],[83.395,27.432],[83.398,27.426],[83.403,27.425],[83.404,27.423],[83.407,27.423],[83.409,27.421],[83.409,27.419],[83.413,27.417],[83.414,27.412],[83.412,27.409],[83.41,27.409],[83.409,27.403],[83.402,27.395],[83.398,27.392],[83.394,27.392],[83.392,27.389],[83.389,27.388],[83.392,27.385],[83.392,27.374],[83.385,27.367],[83.376,27.365],[83.378,27.362],[83.377,27.354],[83.365,27.351],[83.363,27.349],[83.363,27.341],[83.361,27.339],[83.357,27.34],[83.354,27.336],[83.348,27.335],[83.345,27.331],[83.342,27.331],[83.34,27.329],[83.329,27.329],[83.322,27.332],[83.322,27.329],[83.32,27.327],[83.316,27.326],[83.314,27.328],[83.309,27.329],[83.305,27.327],[83.3,27.33],[83.294,27.329],[83.288,27.332],[83.287,27.336],[83.269,27.35],[83.261,27.364],[83.267,27.382],[83.238,27.403],[83.224,27.408],[83.213,27.416],[83.214,27.421],[83.219,27.423],[83.221,27.43],[83.224,27.432],[83.222,27.434],[83.218,27.434],[83.215,27.438],[83.213,27.442],[83.213,27.451],[83.214,27.455],[83.22,27.459],[83.222,27.465],[83.217,27.471],[83.215,27.483],[83.218,27.487],[83.217,27.493],[83.224,27.5],[83.222,27.506],[83.226,27.51],[83.227,27.515],[83.225,27.517],[83.223,27.524],[83.22,27.525],[83.22,27.53],[83.213,27.539],[83.213,27.544],[83.207,27.549],[83.206,27.552],[83.202,27.554],[83.2,27.559],[83.201,27.562],[83.204,27.565]],[[83.322,27.333],[83.321,27.333],[83.321,27.332],[83.322,27.332],[83.322,27.333]]]]}}]}

