{"type":"FeatureCollection","features":[{"type":"Feature","properties":{"name":"Chitwan"},"geometry":{"type":"MultiPolygon","coordinates":[[[[83.91936,27.53797],[83.91957,27.52732],[83.92241,27.52462],[83.92171,27.52084],[83.92336,27.51667],[83.92984,27.5132],[83.93808,27.51434],[83.94655,27.51903],[83.9509,27.52624],[83.95417,27.52781],[83.96551,27.52234],[83.96904,27.51794],[83.96988,27.5136],[83.9686,27.50963],[83.96497,27.50508],[83.95735,27.50048],[83.94876,27.49691],[83.94024,27.49332],[83.93859,27.48958],[83.93967,27.48376],[83.94339,27.47552],[83.94498,27.46948],[83.94423,27.46638],[83.94318,27.46206],[83.93947,27.45481],[83.93402,27.44855],[83.93634,27.44815],[83.93991,27.44772],[83.94221,27.44858],[83.94386,27.44619],[83.94574,27.44371],[83.9482,27.44223],[83.95137,27.44286],[83.95553,27.44247],[83.95821,27.44267],[83.96018,27.44438],[83.96234,27.44491],[83.96554,27.44635],[83.96779,27.44684],[83.96992,27.44557],[83.97055,27.44308],[83.9727,27.44258],[83.97621,27.44305],[83.97831,27.44181],[83.97714,27.43946],[83.98008,27.44105],[83.9822,27.44278],[83.98513,27.44413],[83.98767,27.44371],[83.99074,27.44442],[83.99336,27.44513],[83.99574,27.44641],[83.99691,27.44447],[83.99724,27.44193],[83.99946,27.44225],[84.00089,27.44049],[84.00238,27.44243],[84.00478,27.44236],[84.00516,27.44016],[84.0082,27.44062],[84.00844,27.43809],[84.01055,27.43725],[84.01284,27.43758],[84.01461,27.4361],[84.01618,27.43447],[84.01832,27.43568],[84.02055,27.43474],[84.02229,27.4331],[84.02451,27.43365],[84.02688,27.43337],[84.02711,27.43613],[84.02558,27.43774],[84.02757,27.43976],[84.0298,27.4389],[84.03127,27.44085],[84.03449,27.44127],[84.03731,27.44296],[84.03959,27.44337],[84.04248,27.44298],[84.04548,27.44381],[84.04806,27.44302],[84.05186,27.44343],[84.05259,27.44623],[84.05387,27.44874],[84.05555,27.45066],[84.05828,27.45236],[84.05986,27.45476],[84.0612,27.45726],[84.05862,27.45915],[84.05823,27.46134],[84.06065,27.46222],[84.0618,27.46479],[84.06213,27.46708],[84.0655,27.46901],[84.06699,27.47224],[84.06785,27.47679],[84.07024,27.48085],[84.07317,27.48062],[84.07537,27.48273],[84.07775,27.48434],[84.08005,27.48447],[84.08222,27.48337],[84.08608,27.4849],[84.08847,27.48535],[84.09111,27.48698],[84.09473,27.48924],[84.09579,27.4923],[84.09705,27.49558],[84.09744,27.49804],[84.09853,27.501],[84.09751,27.50467],[84.09845,27.50794],[84.09953,27.51241],[84.09723,27.51632],[84.10041,27.51744],[84.10275,27.5189],[84.10562,27.52117],[84.10817,27.52163],[84.11057,27.51982],[84.11289,27.51984],[84.11567,27.51927],[84.11735,27.51458],[84.11908,27.51262],[84.12253,27.51192],[84.12551,27.51161],[84.12829,27.51167],[84.13336,27.51467],[84.13597,27.51572],[84.13786,27.51734],[84.14033,27.5178],[84.14269,27.51706],[84.14555,27.5187],[84.14943,27.51646],[84.15091,27.51425],[84.15054,27.51175],[84.14933,27.50923],[84.14969,27.50688],[84.14927,27.50444],[84.14866,27.50232],[84.14505,27.49746],[84.14569,27.49524],[84.14704,27.49136],[84.149,27.48891],[84.14891,27.48629],[84.1521,27.48638],[84.15399,27.48454],[84.15674,27.48428],[84.15936,27.48487],[84.16226,27.4846],[84.16699,27.48192],[84.16802,27.47967],[84.17139,27.4788],[84.17132,27.47629],[84.17599,27.47431],[84.17862,27.47453],[84.1812,27.47398],[84.18391,27.47245],[84.18635,27.47284],[84.18897,27.47188],[84.1908,27.46953],[84.19328,27.47264],[84.19604,27.47261],[84.19887,27.47227],[84.20269,27.47088],[84.20576,27.46957],[84.20723,27.4669],[84.2088,27.46514],[84.20597,27.46273],[84.20413,27.45921],[84.20769,27.45687],[84.20728,27.45445],[84.20756,27.44946],[84.20631,27.44686],[84.2076,27.4442],[84.20954,27.44211],[84.21385,27.44193],[84.21624,27.44189],[84.21839,27.44089],[84.22105,27.44289],[84.2209,27.44604],[84.22123,27.44843],[84.22337,27.45077],[84.22644,27.45153],[84.22893,27.4538],[84.23091,27.45639],[84.23362,27.45443],[84.23946,27.45279],[84.24214,27.45482],[84.24514,27.45444],[84.24721,27.45331],[84.2508,27.45376],[84.25408,27.45283],[84.25464,27.45016],[84.25627,27.44863],[84.25918,27.44701],[84.2596,27.44463],[84.2586,27.43975],[84.25996,27.4376],[84.26233,27.43552],[84.26631,27.43458],[84.26769,27.43265],[84.27031,27.43084],[84.27267,27.42925],[84.27267,27.4267],[84.2732,27.42258],[84.27533,27.41956],[84.27761,27.41716],[84.27846,27.41491],[84.27825,27.41214],[84.27816,27.40873],[84.27808,27.40465],[84.27518,27.40155],[84.2758,27.39874],[84.27665,27.39608],[84.28008,27.39693],[84.28295,27.39686],[84.28465,27.39368],[84.2877,27.38998],[84.28999,27.38705],[84.29222,27.38564],[84.29571,27.38602],[84.2969,27.38798],[84.29894,27.3899],[84.3028,27.38983],[84.30575,27.38826],[84.30802,27.38806],[84.31055,27.38712],[84.31273,27.38634],[84.315,27.38431],[84.31691,27.38303],[84.31979,27.38215],[84.32204,27.38203],[84.32724,27.38123],[84.33107,27.37953],[84.33709,27.37842],[84.34126,27.37695],[84.34704,27.37555],[84.35051,27.37568],[84.35343,27.37498],[84.35609,27.37566],[84.35906,27.37483],[84.36235,27.37559],[84.36431,27.37458],[84.36681,27.37451],[84.36968,27.37548],[84.37209,27.37665],[84.37736,27.37637],[84.38041,27.37555],[84.38351,27.37458],[84.3864,27.37383],[84.38944,27.37168],[84.39123,27.36914],[84.39537,27.3711],[84.39799,27.37059],[84.4013,27.37126],[84.40386,27.37091],[84.40724,27.37066],[84.41037,27.36948],[84.41244,27.3707],[84.41582,27.37188],[84.42026,27.37074],[84.42342,27.37307],[84.42765,27.37209],[84.43078,27.37222],[84.43392,27.37071],[84.43713,27.37081],[84.44012,27.37115],[84.44247,27.37058],[84.44401,27.36808],[84.44499,27.36574],[84.44815,27.36423],[84.45102,27.36427],[84.45508,27.3638],[84.45745,27.36335],[84.46086,27.36128],[84.46357,27.36093],[84.46602,27.35807],[84.46917,27.35633],[84.47207,27.35673],[84.47282,27.35918],[84.4756,27.36295],[84.47872,27.36198],[84.48133,27.36146],[84.48623,27.35891],[84.4838,27.36675],[84.48748,27.3692],[84.48754,27.37182],[84.49302,27.37355],[84.49476,27.37663],[84.50196,27.37681],[84.50238,27.38015],[84.5103,27.38132],[84.51182,27.38305],[84.51601,27.38382],[84.52073,27.38431],[84.52899,27.38202],[84.53119,27.38107],[84.533,27.38469],[84.5356,27.38491],[84.53827,27.3853],[84.53956,27.38795],[84.53619,27.39155],[84.53526,27.3943],[84.53517,27.40333],[84.54663,27.4036],[84.54534,27.41034],[84.54128,27.41057],[84.53912,27.41252],[84.5347,27.41236],[84.53236,27.41419],[84.53528,27.41497],[84.54152,27.41949],[84.5477,27.41774],[84.54774,27.42686],[84.55009,27.4301],[84.55179,27.43823],[84.55547,27.44131],[84.55774,27.45863],[84.56058,27.46208],[84.56466,27.46375],[84.57201,27.45988],[84.5762,27.45456],[84.58175,27.45464],[84.58312,27.45722],[84.58763,27.45498],[84.59359,27.45359],[84.59593,27.45547],[84.60067,27.45195],[84.60683,27.45468],[84.61048,27.45231],[84.6212,27.45184],[84.62801,27.45099],[84.63469,27.44531],[84.64225,27.44428],[84.64716,27.42923],[84.65678,27.43297],[84.66352,27.43058],[84.6654,27.43467],[84.66556,27.43984],[84.66739,27.44519],[84.67464,27.44641],[84.67902,27.44888],[84.68118,27.45098],[84.68484,27.45319],[84.68561,27.45583],[84.68868,27.45742],[84.69251,27.45961],[84.69034,27.46256],[84.68636,27.46189],[84.68884,27.46485],[84.69161,27.46776],[84.69292,27.47017],[84.69055,27.472],[84.69634,27.47513],[84.69403,27.47785],[84.69594,27.48013],[84.69418,27.48187],[84.69251,27.48598],[84.69242,27.49212],[84.68718,27.50327],[84.68008,27.51136],[84.67979,27.51512],[84.68083,27.52141],[84.67907,27.52473],[84.67859,27.5279],[84.68208,27.53224],[84.68087,27.53686],[84.68235,27.54162],[84.68341,27.54376],[84.68067,27.54845],[84.67993,27.55153],[84.68157,27.55486],[84.68442,27.55574],[84.68604,27.55923],[84.68798,27.56285],[84.69038,27.56506],[84.69391,27.56379],[84.6958,27.56182],[84.70101,27.56001],[84.70792,27.56065],[84.71046,27.56178],[84.71441,27.56614],[84.72186,27.57453],[84.7255,27.5776],[84.73082,27.58146],[84.73213,27.58413],[84.7335,27.58743],[84.73299,27.58993],[84.73368,27.59278],[84.7326,27.59659],[84.7351,27.59761],[84.73619,27.6],[84.73737,27.60251],[84.73621,27.60461],[84.73577,27.6073],[84.73425,27.61192],[84.73456,27.61619],[84.73151,27.61699],[84.73087,27.61918],[84.73142,27.62433],[84.72653,27.62656],[84.72309,27.62666],[84.72284,27.62959],[84.71852,27.63414],[84.71716,27.63839],[84.72057,27.64431],[84.72209,27.64689],[84.7297,27.64649],[84.72712,27.64998],[84.73086,27.6534],[84.73141,27.65576],[84.7352,27.657],[84.7455,27.65578],[84.74591,27.65326],[84.74267,27.65038],[84.74326,27.64781],[84.74703,27.64938],[84.75211,27.64993],[84.75281,27.65205],[84.7535,27.65434],[84.75922,27.65391],[84.7669,27.65662],[84.77028,27.66198],[84.76965,27.66823],[84.77494,27.66842],[84.77961,27.6716],[84.7818,27.67617],[84.78315,27.68024],[84.79188,27.68694],[84.78621,27.69185],[84.79081,27.69557],[84.79297,27.70032],[84.79563,27.70538],[84.79637,27.70902],[84.79447,27.71043],[84.79111,27.71292],[84.78793,27.71529],[84.78085,27.71864],[84.77877,27.72035],[84.77549,27.7206],[84.7731,27.72156],[84.77036,27.72225],[84.76772,27.72494],[84.76338,27.72961],[84.75819,27.73282],[84.758,27.73507],[84.75287,27.73501],[84.74605,27.73434],[84.73665,27.73212],[84.72833,27.72683],[84.72473,27.72964],[84.71837,27.72779],[84.71496,27.72595],[84.71166,27.72719],[84.70812,27.72812],[84.70256,27.7277],[84.70035,27.72719],[84.69579,27.7248],[84.69293,27.72141],[84.68842,27.72547],[84.68494,27.72547],[84.68229,27.72814],[84.68074,27.73117],[84.67834,27.73016],[84.67537,27.73035],[84.67305,27.73362],[84.66927,27.73841],[84.67511,27.74353],[84.67489,27.7471],[84.67732,27.74775],[84.67937,27.75131],[84.68152,27.75761],[84.67638,27.76346],[84.67268,27.76377],[84.66848,27.76626],[84.67302,27.77501],[84.67449,27.77978],[84.6619,27.78124],[84.64994,27.77993],[84.64694,27.78472],[84.63769,27.78308],[84.63897,27.78643],[84.63726,27.79465],[84.6392,27.79339],[84.64149,27.79315],[84.6438,27.79335],[84.64534,27.795],[84.64546,27.79731],[84.64592,27.79961],[84.64395,27.80075],[84.64201,27.80221],[84.64006,27.80369],[84.63822,27.8055],[84.63603,27.80662],[84.6339,27.80734],[84.63151,27.80642],[84.62978,27.80803],[84.62743,27.80746],[84.62526,27.80907],[84.62231,27.80936],[84.61984,27.80907],[84.62108,27.81274],[84.6216,27.81529],[84.63171,27.81954],[84.63904,27.82212],[84.6415,27.82312],[84.64796,27.82205],[84.65388,27.82383],[84.66435,27.82424],[84.66144,27.82851],[84.66101,27.83105],[84.66301,27.83587],[84.66367,27.83901],[84.66375,27.84152],[84.66165,27.84537],[84.66103,27.84801],[84.66001,27.84996],[84.65777,27.85157],[84.65376,27.85244],[84.64956,27.85268],[84.64716,27.85361],[84.648,27.85647],[84.64968,27.85849],[84.64748,27.86016],[84.63934,27.85973],[84.63578,27.8604],[84.63276,27.86952],[84.62905,27.87029],[84.62628,27.87346],[84.62777,27.87515],[84.62731,27.87779],[84.62225,27.88061],[84.61912,27.88088],[84.61742,27.87931],[84.61395,27.87644],[84.61393,27.87362],[84.60698,27.87147],[84.60423,27.87326],[84.6026,27.87611],[84.59922,27.87641],[84.59391,27.87706],[84.59257,27.8792],[84.58989,27.87995],[84.58694,27.87828],[84.5839,27.87602],[84.58085,27.87452],[84.57768,27.87174],[84.5765,27.8692],[84.57763,27.86673],[84.57607,27.86343],[84.57367,27.86174],[84.56993,27.85993],[84.56595,27.8586],[84.56256,27.85816],[84.55924,27.85795],[84.55685,27.85302],[84.55798,27.84915],[84.55877,27.84604],[84.55772,27.84213],[84.55677,27.8391],[84.55497,27.83578],[84.54982,27.8327],[84.54559,27.83183],[84.54182,27.83324],[84.53918,27.83391],[84.53344,27.83309],[84.52933,27.83378],[84.52354,27.83306],[84.5207,27.83124],[84.52026,27.82798],[84.52067,27.8228],[84.51963,27.81974],[84.51826,27.81689],[84.51166,27.81561],[84.50814,27.81673],[84.50363,27.81945],[84.49612,27.82101],[84.49354,27.81931],[84.49084,27.82001],[84.48838,27.82078],[84.48494,27.82124],[84.48167,27.82131],[84.47677,27.82329],[84.46589,27.82474],[84.46634,27.82111],[84.4649,27.81885],[84.45846,27.81958],[84.4541,27.82054],[84.44616,27.8234],[84.44288,27.8212],[84.4413,27.8175],[84.43818,27.81554],[84.43519,27.81546],[84.43263,27.81367],[84.43112,27.80576],[84.4307,27.79897],[84.42997,27.79136],[84.43426,27.78304],[84.43941,27.77822],[84.44857,27.77834],[84.45368,27.77702],[84.46097,27.7737],[84.46298,27.77087],[84.46536,27.76939],[84.46789,27.76586],[84.4703,27.76131],[84.47177,27.75574],[84.4718,27.75268],[84.46799,27.752],[84.46362,27.7536],[84.46079,27.75652],[84.45901,27.75844],[84.45686,27.75942],[84.45429,27.75982],[84.45096,27.75916],[84.44848,27.75772],[84.44373,27.75136],[84.43817,27.7435],[84.43425,27.74127],[84.43068,27.74129],[84.42796,27.74222],[84.4242,27.74231],[84.42225,27.73925],[84.42526,27.73386],[84.42666,27.72578],[84.4312,27.71104],[84.4316,27.70805],[84.43036,27.70545],[84.41864,27.69984],[84.4096,27.69717],[84.40485,27.69491],[84.3951,27.68939],[84.39054,27.6874],[84.38191,27.68025],[84.37538,27.68202],[84.36726,27.6874],[84.35836,27.69904],[84.34913,27.70256],[84.34523,27.70271],[84.32891,27.69545],[84.32519,27.69321],[84.32443,27.69082],[84.32331,27.68723],[84.31791,27.68319],[84.30946,27.67723],[84.29615,27.66993],[84.27151,27.66304],[84.26261,27.65673],[84.25857,27.65098],[84.25488,27.65086],[84.25104,27.65405],[84.24293,27.65216],[84.23613,27.65041],[84.22815,27.64493],[84.21596,27.6425],[84.20686,27.63923],[84.20171,27.63459],[84.18652,27.62615],[84.17249,27.61534],[84.15116,27.59733],[84.13545,27.585],[84.12987,27.57679],[84.12618,27.57123],[84.12549,27.56545],[84.1224,27.5625],[84.11923,27.55997],[84.11909,27.55587],[84.11546,27.55396],[84.11175,27.55303],[84.10804,27.55126],[84.099,27.55217],[84.08944,27.55457],[84.07923,27.55967],[84.07511,27.55967],[84.0709,27.55754],[84.06773,27.55175],[84.06275,27.55175],[84.05708,27.55518],[84.05099,27.5567],[84.04618,27.55472],[84.04327,27.55061],[84.04146,27.54491],[84.0382,27.5395],[84.03382,27.53798],[84.02652,27.5369],[84.01554,27.53911],[84.00687,27.54459],[83.99957,27.54581],[83.99365,27.54337],[83.98344,27.54429],[83.97674,27.54878],[83.9673,27.5506],[83.96112,27.54992],[83.95592,27.54745],[83.95434,27.54276],[83.94876,27.5401],[83.94627,27.54129],[83.93998,27.54231],[83.93134,27.5455],[83.92619,27.54527],[83.92207,27.54276],[83.91936,27.53797]]]]}}]}