{"type":"FeatureCollection","features":[{"type":"Feature","properties":{"name":"Kaski"},"geometry":{"type":"MultiPolygon","coordinates":[[[[83.69944,28.39931],[83.70129,28.39585],[83.70235,28.39355],[83.70421,28.39085],[83.7047,28.38677],[83.7094,28.38371],[83.71148,28.38192],[83.7136,28.37993],[83.71591,28.37887],[83.71721,28.37688],[83.72013,28.3765],[83.72269,28.37499],[83.72055,28.37301],[83.71884,28.3695],[83.71795,28.36714],[83.71954,28.36497],[83.72056,28.36225],[83.72271,28.35894],[83.7254,28.35869],[83.72636,28.35666],[83.72657,28.35293],[83.72542,28.34894],[83.72782,28.34806],[83.7297,28.34655],[83.73195,28.3463],[83.73432,28.34536],[83.73666,28.34404],[83.73898,28.34125],[83.73881,28.33816],[83.74019,28.33597],[83.74097,28.33377],[83.74301,28.33161],[83.7452,28.32919],[83.74746,28.32698],[83.74987,28.32552],[83.7522,28.32492],[83.75409,28.32363],[83.75626,28.32312],[83.75832,28.32146],[83.75867,28.31927],[83.76063,28.31705],[83.76233,28.31541],[83.76488,28.31396],[83.76693,28.31287],[83.76896,28.31179],[83.77178,28.31153],[83.77354,28.30989],[83.77289,28.30681],[83.77072,28.30501],[83.76832,28.30262],[83.76766,28.30034],[83.76461,28.29877],[83.7641,28.29638],[83.76204,28.29483],[83.76135,28.29259],[83.76452,28.29159],[83.76621,28.28977],[83.77407,28.28543],[83.77441,28.28254],[83.76616,28.27638],[83.76667,28.27404],[83.76912,28.27168],[83.77112,28.26973],[83.77557,28.26877],[83.77785,28.27073],[83.78073,28.2696],[83.78531,28.2663],[83.78987,28.26516],[83.79229,28.2631],[83.79553,28.26325],[83.79896,28.26224],[83.80115,28.26068],[83.80575,28.26107],[83.80788,28.26165],[83.8101,28.2614],[83.81486,28.26075],[83.81714,28.26016],[83.81944,28.26056],[83.82224,28.25664],[83.82231,28.2537],[83.82239,28.25073],[83.80935,28.24086],[83.80388,28.23473],[83.80117,28.23212],[83.79872,28.22866],[83.80408,28.22362],[83.80743,28.22045],[83.8096,28.21957],[83.81632,28.21016],[83.82343,28.21441],[83.82814,28.21449],[83.83047,28.21471],[83.83562,28.21334],[83.83882,28.21147],[83.84089,28.20962],[83.84158,28.20689],[83.84288,28.20415],[83.84668,28.20249],[83.84673,28.19956],[83.85557,28.19383],[83.85789,28.19539],[83.86019,28.19592],[83.86279,28.19794],[83.86513,28.19728],[83.86894,28.19704],[83.87361,28.19742],[83.8765,28.19297],[83.87885,28.19285],[83.88636,28.19444],[83.89036,28.19521],[83.8946,28.19211],[83.8985,28.18943],[83.90057,28.18596],[83.90142,28.18336],[83.9028,28.18081],[83.90468,28.17749],[83.9071,28.17513],[83.91267,28.17237],[83.91528,28.17198],[83.91826,28.17128],[83.92121,28.16926],[83.92379,28.16864],[83.92595,28.16372],[83.92705,28.16129],[83.924,28.15842],[83.92238,28.15593],[83.92332,28.15322],[83.92631,28.14899],[83.92964,28.14519],[83.9341,28.14403],[83.93529,28.14028],[83.93697,28.13806],[83.94218,28.13796],[83.94553,28.13894],[83.94976,28.14],[83.95205,28.13987],[83.95433,28.13951],[83.95831,28.13968],[83.96007,28.14114],[83.96132,28.13898],[83.96442,28.14109],[83.96711,28.14265],[83.96953,28.14251],[83.97198,28.142],[83.97501,28.14277],[83.9774,28.14319],[83.98018,28.14332],[83.97969,28.14024],[83.98231,28.14048],[83.9833,28.13802],[83.98542,28.13869],[83.98658,28.13644],[83.98955,28.13741],[83.98976,28.13449],[83.99186,28.13598],[83.99358,28.1346],[83.99556,28.13336],[83.99771,28.13283],[83.99968,28.13148],[84.00205,28.1313],[84.00105,28.12878],[83.99935,28.12716],[83.99955,28.12482],[83.99888,28.12184],[84.00091,28.11973],[84.00292,28.11784],[84.00471,28.11569],[84.0067,28.11371],[84.00833,28.11181],[84.00972,28.10941],[84.01195,28.10983],[84.01399,28.10895],[84.01257,28.10653],[84.01519,28.10528],[84.01754,28.1045],[84.02066,28.10487],[84.02393,28.10512],[84.02629,28.10491],[84.02859,28.10416],[84.02755,28.10182],[84.02567,28.09977],[84.02656,28.0974],[84.02791,28.09555],[84.0275,28.09791],[84.02834,28.10008],[84.03162,28.09992],[84.03382,28.09872],[84.03526,28.09699],[84.03784,28.09586],[84.04108,28.09497],[84.04092,28.09264],[84.03871,28.09205],[84.04096,28.09076],[84.0435,28.08991],[84.04474,28.08807],[84.04711,28.08537],[84.04989,28.08379],[84.05242,28.08488],[84.05554,28.08871],[84.05838,28.08804],[84.06064,28.08656],[84.06236,28.08394],[84.06441,28.08305],[84.0667,28.08119],[84.06784,28.0786],[84.07087,28.07885],[84.07344,28.08321],[84.07577,28.08655],[84.07726,28.08961],[84.07878,28.09134],[84.08773,28.09451],[84.08872,28.0986],[84.09303,28.10265],[84.09805,28.10742],[84.10099,28.10835],[84.10248,28.11049],[84.10774,28.11028],[84.10972,28.10785],[84.11272,28.10504],[84.11692,28.104],[84.1207,28.10597],[84.1236,28.10606],[84.12634,28.10486],[84.13213,28.10415],[84.13814,28.10444],[84.14177,28.10474],[84.14426,28.10639],[84.14712,28.1049],[84.14913,28.10217],[84.15156,28.10148],[84.1551,28.10015],[84.15863,28.09703],[84.16171,28.09934],[84.16422,28.09969],[84.16699,28.10113],[84.1706,28.09978],[84.17779,28.10071],[84.18111,28.09862],[84.18302,28.09578],[84.18911,28.09601],[84.19109,28.09455],[84.19429,28.09517],[84.1959,28.09726],[84.19956,28.09607],[84.20194,28.0958],[84.20418,28.0951],[84.20662,28.0945],[84.20915,28.0946],[84.21172,28.09481],[84.21405,28.09659],[84.21582,28.09809],[84.21811,28.09934],[84.22321,28.09905],[84.22605,28.09732],[84.22829,28.09839],[84.22863,28.10106],[84.22914,28.10414],[84.22834,28.10712],[84.22582,28.10856],[84.22432,28.11161],[84.22452,28.11506],[84.2243,28.11815],[84.22208,28.11939],[84.21858,28.12243],[84.21758,28.12541],[84.21745,28.12972],[84.21886,28.13272],[84.2236,28.13559],[84.22583,28.13587],[84.22829,28.1396],[84.22696,28.14322],[84.22176,28.14807],[84.22103,28.15135],[84.22215,28.15335],[84.22042,28.15586],[84.21855,28.15832],[84.21862,28.16137],[84.21887,28.16364],[84.21871,28.16624],[84.21628,28.16851],[84.21337,28.17191],[84.21449,28.17502],[84.21637,28.17693],[84.21732,28.17932],[84.21795,28.18164],[84.21465,28.1818],[84.21142,28.18325],[84.20908,28.18361],[84.20756,28.18674],[84.2062,28.189],[84.2014,28.18952],[84.19873,28.18899],[84.19642,28.18809],[84.19395,28.1886],[84.19409,28.19142],[84.19066,28.19441],[84.19265,28.19844],[84.19487,28.19721],[84.2039,28.20211],[84.20813,28.20815],[84.21041,28.21289],[84.20887,28.21603],[84.20962,28.21961],[84.21092,28.22567],[84.21286,28.22748],[84.21129,28.23012],[84.21182,28.23335],[84.21389,28.23718],[84.21141,28.23811],[84.21438,28.23962],[84.213,28.24172],[84.21345,28.25055],[84.21113,28.25736],[84.21083,28.26138],[84.21084,28.26367],[84.20586,28.27155],[84.19581,28.27846],[84.18746,28.29464],[84.18746,28.2969],[84.19283,28.29962],[84.19523,28.30539],[84.19479,28.30854],[84.19703,28.31302],[84.19739,28.31943],[84.20521,28.32681],[84.20943,28.34885],[84.21493,28.35614],[84.21714,28.35845],[84.21788,28.37722],[84.21323,28.38823],[84.22543,28.40179],[84.22888,28.41556],[84.23393,28.41908],[84.24469,28.42657],[84.24531,28.43751],[84.24553,28.44132],[84.25145,28.44557],[84.2631,28.45158],[84.26858,28.45578],[84.27141,28.46257],[84.27848,28.47096],[84.27305,28.47236],[84.27134,28.47385],[84.26573,28.48077],[84.26181,28.48175],[84.25797,28.48138],[84.25605,28.48023],[84.25221,28.47996],[84.24795,28.48216],[84.24437,28.48245],[84.23904,28.48258],[84.23331,28.48417],[84.22705,28.48056],[84.22255,28.48175],[84.21829,28.48603],[84.21335,28.48586],[84.19807,28.48755],[84.18849,28.4896],[84.1876,28.49765],[84.18697,28.50092],[84.18534,28.50546],[84.17994,28.50541],[84.17391,28.50868],[84.16923,28.51132],[84.16337,28.51187],[84.15748,28.51851],[84.13668,28.53905],[84.12622,28.5343],[84.12149,28.53507],[84.11521,28.5376],[84.10919,28.53693],[84.09441,28.53898],[84.0858,28.53882],[84.08146,28.54273],[84.07452,28.54513],[84.06269,28.55963],[84.0612,28.56336],[84.05148,28.56565],[84.03232,28.57226],[84.02459,28.57696],[84.01954,28.57942],[84.01464,28.58297],[84.01336,28.58715],[83.99117,28.58498],[83.98548,28.58745],[83.97754,28.59791],[83.96818,28.60133],[83.96336,28.6054],[83.94437,28.60173],[83.94144,28.60168],[83.93629,28.6016],[83.9311,28.60408],[83.92512,28.60573],[83.92113,28.60607],[83.91739,28.60574],[83.89894,28.60693],[83.88661,28.60725],[83.87864,28.61119],[83.87445,28.61293],[83.87029,28.61295],[83.86503,28.61189],[83.86286,28.61079],[83.86008,28.61012],[83.85551,28.60921],[83.85122,28.60634],[83.84872,28.60395],[83.84513,28.60501],[83.83765,28.60117],[83.83133,28.59707],[83.82679,28.59625],[83.81384,28.59298],[83.81084,28.59121],[83.80747,28.59011],[83.80694,28.58772],[83.80494,28.58523],[83.8023,28.58263],[83.80126,28.57978],[83.80206,28.57529],[83.80378,28.57207],[83.80361,28.569],[83.80939,28.55973],[83.81392,28.55684],[83.81677,28.55005],[83.82044,28.54827],[83.82679,28.5416],[83.82637,28.53814],[83.82629,28.5331],[83.82295,28.53081],[83.81955,28.52747],[83.81629,28.52251],[83.81259,28.51801],[83.80605,28.51865],[83.78441,28.498],[83.77231,28.48028],[83.76486,28.47921],[83.75982,28.47677],[83.75592,28.4761],[83.75167,28.47181],[83.75329,28.46856],[83.75336,28.46544],[83.75389,28.46159],[83.75228,28.45616],[83.74721,28.45139],[83.74511,28.44884],[83.74367,28.44653],[83.73976,28.44264],[83.73558,28.4384],[83.73694,28.43451],[83.73619,28.43107],[83.73437,28.42743],[83.73427,28.4248],[83.73171,28.42108],[83.73493,28.41714],[83.73721,28.41365],[83.73801,28.41014],[83.73997,28.40758],[83.74593,28.40199],[83.75291,28.40404],[83.75602,28.40663],[83.76145,28.40431],[83.76191,28.3991],[83.76021,28.39394],[83.75694,28.39309],[83.75397,28.39366],[83.75004,28.39457],[83.74775,28.39403],[83.7447,28.3944],[83.7419,28.3942],[83.73968,28.3947],[83.737,28.39425],[83.73253,28.3959],[83.72944,28.39623],[83.72727,28.3954],[83.72485,28.3957],[83.72219,28.39639],[83.71994,28.39601],[83.71326,28.3953],[83.7103,28.39614],[83.70745,28.39761],[83.70425,28.39963],[83.69944,28.39931]]]]}}]}